COSMOS 2425 (716)       
1 29670U 06062A   18315.72948774 -.00000005  00000-0  10000-3 0  9994
2 29670  65.2088 287.5471 0021788 338.7032 243.9795  2.13104911 92452
COSMOS 2426 (717)       
1 29671U 06062B   18315.83259149 -.00000004  00000-0  10000-3 0  9997
2 29671  65.2269 287.6433 0017736 174.1092 342.3555  2.13102995 92468
COSMOS 2433 (720)       
1 32275U 07052A   18315.73283214 -.00000057  00000-0  10000-3 0  9998
2 32275  65.7576  48.4171 0003209 227.8196 188.1962  2.13104559 85975
COSMOS 2432 (719)       
1 32276U 07052B   18315.74210413 -.00000057  00000-0  10000-3 0  9991
2 32276  65.7698  48.4963 0009269 329.0153  45.7239  2.13103745 85971
COSMOS 2434 (721)       
1 32393U 07065A   18316.07325836 -.00000003  00000-0  00000+0 0  9994
2 32393  64.8247 286.4402 0001987 154.5889  50.3062  2.13102928 84684
COSMOS 2436 (723)       
1 32395U 07065C   18316.43338603 -.00000001  00000-0  10000-3 0  9995
2 32395  64.8329 286.4791 0015151 349.9019 182.5010  2.13104279 84627
COSMOS 2456 (730)       
1 36111U 09070A   18316.28799432  .00000041  00000-0  00000+0 0  9995
2 36111  64.1887 166.0399 0003329 340.1180 202.1737  2.13103042 69357
COSMOS 2457 (733)       
1 36112U 09070B   18316.34257295  .00000041  00000-0  00000+0 0  9999
2 36112  64.1703 165.9459 0006424 152.2635 198.0208  2.13101615 69356
COSMOS 2458 (734)       
1 36113U 09070C   18316.48605388  .00000041  00000-0  10000-3 0  9990
2 36113  64.1741 165.9554 0002911  47.7837  95.9531  2.13091631 69365
COSMOS 2459 (731)       
1 36400U 10007A   18315.72580287 -.00000058  00000-0  10000-3 0  9996
2 36400  65.6656  47.4598 0024667 351.3908 276.9535  2.13102088 67690
COSMOS 2461 (735)       
1 36401U 10007B   18315.62249574 -.00000058  00000-0  10000-3 0  9997
2 36401  65.6585  47.4380 0006673  80.7025  18.9595  2.13101995 67697
COSMOS 2460 (732)       
1 36402U 10007C   18315.50945888 -.00000058  00000-0  10000-3 0  9996
2 36402  65.6486  47.4085 0001556 168.7482 244.5349  2.13101583 67696
COSMOS 2464 (736)       
1 37139U 10041C   18315.70860878 -.00000006  00000-0  00000-0 0  9998
2 37139  64.4278 286.1846 0023332   5.6232 147.3457  2.13102720 63763
COSMOS 2471 (701K)      
1 37372U 11009A   18315.73953816 -.00000058  00000-0  00000-0 0  9997
2 37372  65.6460  47.3437 0009193 224.7918 152.1455  2.13107635 59975
COSMOS 2474 (742)       
1 37829U 11055A   18315.73362302  .00000041  00000-0  00000-0 0  9990
2 37829  64.5118 166.8394 0006985 239.9751  94.4455  2.13101859 55334
COSMOS 2476 (744)       
1 37867U 11064A   18315.66948216  .00000041  00000-0  00000-0 0  9998
2 37867  64.4911 166.8983 0016864 237.3246  93.9615  2.13101885 54686
COSMOS 2477 (745)       
1 37868U 11064B   18315.62069885  .00000041  00000-0  00000-0 0  9991
2 37868  64.4990 166.9516 0014752 238.5699 234.1235  2.13101792 54646
COSMOS 2475 (743)       
1 37869U 11064C   18315.60921178  .00000041  00000-0  00000-0 0  9992
2 37869  64.5054 166.9476 0018633 266.1685 154.6143  2.13102164 54657
COSMOS 2485 (747)       
1 39155U 13019A   18315.60187795  .00000041  00000-0  00000+0 0  9992
2 39155  64.6599 167.0440 0017511 232.2215  92.0471  2.13101998 43158
COSMOS 2492 (754)       
1 39620U 14012A   18315.76521175 -.00000058  00000-0  10000-3 0  9998
2 39620  65.5382  47.2640 0012702 325.3362 159.1514  2.13103389 36117
COSMOS 2500 (755)       
1 40001U 14032A   18316.13164685 -.00000059  00000-0  00000+0 0  9992
2 40001  65.4798  47.2095 0007554 200.3354  67.1973  2.13102581 34330
COSMOS 2501 (702K)      
1 40315U 14075A   18316.33982656 -.00000004  00000-0  00000+0 0  9995
2 40315  64.1520 287.3197 0017014 212.3642  14.9577  2.13098528 30748
COSMOS 2514 (751)       
1 41330U 16008A   18315.64467714 -.00000059  00000-0  00000-0 0  9998
2 41330  65.2814  47.2439 0010816 210.9109 224.2527  2.13103166 21499
COSMOS 2516 (753)       
1 41554U 16032A   18315.53149794 -.00000008  00000-0  00000-0 0  9990
2 41554  64.3717 287.2551 0014417 225.4526  13.6949  2.13101695 19091
COSMOS 2522 (752)       
1 42939U 17055A   18315.72918374 -.00000006  00000-0  00000+0 0  9990
2 42939  64.6022 287.2590 0009970 249.9305   7.3126  2.13101942  8852
